[{"OBJECT_NAME":"STARLINK-3445","OBJECT_ID":"2022-016D","EPOCH":"2025-12-11T06:01:36.766272","MEAN_MOTION":15.08840791,"ECCENTRICITY":0.00014592,"INCLINATION":53.2194,"RA_OF_ASC_NODE":6.2247,"ARG_OF_PERICENTER":89.0408,"MEAN_ANOMALY":271.0751,"EPHEMERIS_TYPE":0,"CLASSIFICATION_TYPE":"U","NORAD_CAT_ID":51717,"ELEMENT_SET_NO":999,"REV_AT_EPOCH":21007,"BSTAR":9.6056891e-5,"MEAN_MOTION_DOT":1.241e-5,"MEAN_MOTION_DDOT":0},{"OBJECT_NAME":"STARLINK-3546","OBJECT_ID":"2022-016E","EPOCH":"2025-12-11T06:30:41.887296","MEAN_MOTION":15.10607739,"ECCENTRICITY":0.00034742,"INCLINATION":53.218,"RA_OF_ASC_NODE":5.8036,"ARG_OF_PERICENTER":43.935,"MEAN_ANOMALY":316.1919,"EPHEMERIS_TYPE":0,"CLASSIFICATION_TYPE":"U","NORAD_CAT_ID":51718,"ELEMENT_SET_NO":999,"REV_AT_EPOCH":21120,"BSTAR":0.0030894966,"MEAN_MOTION_DOT":0.00051707,"MEAN_MOTION_DDOT":0},{"OBJECT_NAME":"STARLINK-3540","OBJECT_ID":"2022-016F","EPOCH":"2025-12-11T07:25:01.513056","MEAN_MOTION":15.08836813,"ECCENTRICITY":0.00015616,"INCLINATION":53.2186,"RA_OF_ASC_NODE":5.9547,"ARG_OF_PERICENTER":93.956,"MEAN_ANOMALY":266.1611,"EPHEMERIS_TYPE":0,"CLASSIFICATION_TYPE":"U","NORAD_CAT_ID":51719,"ELEMENT_SET_NO":999,"REV_AT_EPOCH":21008,"BSTAR":4.4274793e-5,"MEAN_MOTION_DOT":4.17e-6,"MEAN_MOTION_DDOT":0},{"OBJECT_NAME":"STARLINK-3526","OBJECT_ID":"2022-016G","EPOCH":"2025-12-11T06:54:34.878816","MEAN_MOTION":15.0884242,"ECCENTRICITY":0.00015142,"INCLINATION":53.2194,"RA_OF_ASC_NODE":5.9431,"ARG_OF_PERICENTER":94.9498,"MEAN_ANOMALY":265.1667,"EPHEMERIS_TYPE":0,"CLASSIFICATION_TYPE":"U","NORAD_CAT_ID":51720,"ELEMENT_SET_NO":999,"REV_AT_EPOCH":21007,"BSTAR":9.7504861e-5,"MEAN_MOTION_DOT":1.264e-5,"MEAN_MOTION_DDOT":0},{"OBJECT_NAME":"STARLINK-3524","OBJECT_ID":"2022-016H","EPOCH":"2025-12-11T07:10:29.483904","MEAN_MOTION":15.08841036,"ECCENTRICITY":0.00015039,"INCLINATION":53.2191,"RA_OF_ASC_NODE":5.9323,"ARG_OF_PERICENTER":110.4772,"MEAN_ANOMALY":249.6382,"EPHEMERIS_TYPE":0,"CLASSIFICATION_TYPE":"U","NORAD_CAT_ID":51721,"ELEMENT_SET_NO":999,"REV_AT_EPOCH":21008,"BSTAR":0.00019558414,"MEAN_MOTION_DOT":2.826e-5,"MEAN_MOTION_DDOT":0},{"OBJECT_NAME":"STARLINK-3535","OBJECT_ID":"2022-016J","EPOCH":"2025-12-11T06:47:52.853568","MEAN_MOTION":15.08856146,"ECCENTRICITY":0.00010306,"INCLINATION":53.2187,"RA_OF_ASC_NODE":5.9927,"ARG_OF_PERICENTER":108.2077,"MEAN_ANOMALY":251.9028,"EPHEMERIS_TYPE":0,"CLASSIFICATION_TYPE":"U","NORAD_CAT_ID":51722,"ELEMENT_SET_NO":999,"REV_AT_EPOCH":21007,"BSTAR":0.00016057548,"MEAN_MOTION_DOT":2.27e-5,"MEAN_MOTION_DDOT":0},{"OBJECT_NAME":"STARLINK-3529","OBJECT_ID":"2022-016L","EPOCH":"2025-12-11T06:37:18.605856","MEAN_MOTION":15.08841405,"ECCENTRICITY":0.00015621,"INCLINATION":53.218,"RA_OF_ASC_NODE":6.0256,"ARG_OF_PERICENTER":85.3871,"MEAN_ANOMALY":274.73,"EPHEMERIS_TYPE":0,"CLASSIFICATION_TYPE":"U","NORAD_CAT_ID":51724,"ELEMENT_SET_NO":999,"REV_AT_EPOCH":21007,"BSTAR":-1.2144815e-5,"MEAN_MOTION_DOT":-4.81e-6,"MEAN_MOTION_DDOT":0},{"OBJECT_NAME":"STARLINK-3522","OBJECT_ID":"2022-016M","EPOCH":"2025-12-11T06:53:13.088256","MEAN_MOTION":15.08840151,"ECCENTRICITY":0.00014045,"INCLINATION":53.2185,"RA_OF_ASC_NODE":5.9772,"ARG_OF_PERICENTER":92.2751,"MEAN_ANOMALY":267.8402,"EPHEMERIS_TYPE":0,"CLASSIFICATION_TYPE":"U","NORAD_CAT_ID":51725,"ELEMENT_SET_NO":999,"REV_AT_EPOCH":21007,"BSTAR":3.769216e-5,"MEAN_MOTION_DOT":3.12e-6,"MEAN_MOTION_DDOT":0},{"OBJECT_NAME":"STARLINK-3527","OBJECT_ID":"2022-016N","EPOCH":"2025-12-11T06:01:32.253600","MEAN_MOTION":15.0884045,"ECCENTRICITY":0.00016174,"INCLINATION":53.2185,"RA_OF_ASC_NODE":356.1372,"ARG_OF_PERICENTER":85.011,"MEAN_ANOMALY":275.1067,"EPHEMERIS_TYPE":0,"CLASSIFICATION_TYPE":"U","NORAD_CAT_ID":51726,"ELEMENT_SET_NO":999,"REV_AT_EPOCH":21021,"BSTAR":4.7714123e-5,"MEAN_MOTION_DOT":4.71e-6,"MEAN_MOTION_DDOT":0},{"OBJECT_NAME":"STARLINK-3532","OBJECT_ID":"2022-016P","EPOCH":"2025-12-11T06:42:36.432576","MEAN_MOTION":15.08840998,"ECCENTRICITY":0.00012423,"INCLINATION":53.2183,"RA_OF_ASC_NODE":6.0098,"ARG_OF_PERICENTER":92.3799,"MEAN_ANOMALY":267.7336,"EPHEMERIS_TYPE":0,"CLASSIFICATION_TYPE":"U","NORAD_CAT_ID":51727,"ELEMENT_SET_NO":999,"REV_AT_EPOCH":21007,"BSTAR":5.7160016e-5,"MEAN_MOTION_DOT":6.22e-6,"MEAN_MOTION_DDOT":0},{"OBJECT_NAME":"STARLINK-3523","OBJECT_ID":"2022-016R","EPOCH":"2025-12-11T06:06:50.484672","MEAN_MOTION":15.08837363,"ECCENTRICITY":0.00016558,"INCLINATION":53.2198,"RA_OF_ASC_NODE":356.1225,"ARG_OF_PERICENTER":88.9528,"MEAN_ANOMALY":271.1654,"EPHEMERIS_TYPE":0,"CLASSIFICATION_TYPE":"U","NORAD_CAT_ID":51729,"ELEMENT_SET_NO":999,"REV_AT_EPOCH":21021,"BSTAR":1.585083e-5,"MEAN_MOTION_DOT":-3.6e-7,"MEAN_MOTION_DDOT":0},{"OBJECT_NAME":"STARLINK-3514","OBJECT_ID":"2022-016T","EPOCH":"2025-12-11T05:56:14.688672","MEAN_MOTION":15.08838995,"ECCENTRICITY":0.00016109,"INCLINATION":53.219,"RA_OF_ASC_NODE":356.1551,"ARG_OF_PERICENTER":92.5594,"MEAN_ANOMALY":267.5583,"EPHEMERIS_TYPE":0,"CLASSIFICATION_TYPE":"U","NORAD_CAT_ID":51731,"ELEMENT_SET_NO":999,"REV_AT_EPOCH":21021,"BSTAR":0.00011222777,"MEAN_MOTION_DOT":1.498e-5,"MEAN_MOTION_DDOT":0},{"OBJECT_NAME":"STARLINK-3518","OBJECT_ID":"2022-016U","EPOCH":"2025-12-11T07:10:26.123808","MEAN_MOTION":15.088392,"ECCENTRICITY":0.00011577,"INCLINATION":53.2173,"RA_OF_ASC_NODE":355.9216,"ARG_OF_PERICENTER":87.3092,"MEAN_ANOMALY":272.8032,"EPHEMERIS_TYPE":0,"CLASSIFICATION_TYPE":"U","NORAD_CAT_ID":51732,"ELEMENT_SET_NO":999,"REV_AT_EPOCH":21136,"BSTAR":-1.2053772e-5,"MEAN_MOTION_DOT":-4.8e-6,"MEAN_MOTION_DDOT":0},{"OBJECT_NAME":"STARLINK-3525","OBJECT_ID":"2022-016V","EPOCH":"2025-12-11T07:22:24.427488","MEAN_MOTION":15.08853857,"ECCENTRICITY":0.00014758,"INCLINATION":53.2186,"RA_OF_ASC_NODE":355.8954,"ARG_OF_PERICENTER":80.0373,"MEAN_ANOMALY":280.0785,"EPHEMERIS_TYPE":0,"CLASSIFICATION_TYPE":"U","NORAD_CAT_ID":51733,"ELEMENT_SET_NO":999,"REV_AT_EPOCH":21022,"BSTAR":0.00027294452,"MEAN_MOTION_DOT":4.06e-5,"MEAN_MOTION_DDOT":0},{"OBJECT_NAME":"STARLINK-3450","OBJECT_ID":"2022-016W","EPOCH":"2025-12-11T06:54:31.917024","MEAN_MOTION":15.08844919,"ECCENTRICITY":0.00014919,"INCLINATION":53.2192,"RA_OF_ASC_NODE":355.9719,"ARG_OF_PERICENTER":88.996,"MEAN_ANOMALY":271.1203,"EPHEMERIS_TYPE":0,"CLASSIFICATION_TYPE":"U","NORAD_CAT_ID":51734,"ELEMENT_SET_NO":999,"REV_AT_EPOCH":21021,"BSTAR":0.00012742601,"MEAN_MOTION_DOT":1.741e-5,"MEAN_MOTION_DDOT":0},{"OBJECT_NAME":"STARLINK-3517","OBJECT_ID":"2022-016X","EPOCH":"2025-12-11T07:05:08.153664","MEAN_MOTION":15.08838223,"ECCENTRICITY":0.00015874,"INCLINATION":53.2196,"RA_OF_ASC_NODE":355.9388,"ARG_OF_PERICENTER":83.6172,"MEAN_ANOMALY":276.5001,"EPHEMERIS_TYPE":0,"CLASSIFICATION_TYPE":"U","NORAD_CAT_ID":51735,"ELEMENT_SET_NO":999,"REV_AT_EPOCH":21022,"BSTAR":4.2309765e-5,"MEAN_MOTION_DOT":3.85e-6,"MEAN_MOTION_DDOT":0}]
