STARLINK-3445           
1 51717U 22016D   25345.25111998  .00001241  00000+0  96057-4 0  9995
2 51717  53.2194   6.2247 0001459  89.0408 271.0751 15.08840791210072
STARLINK-3546           
1 51718U 22016E   25345.27131814  .00051707  00000+0  30895-2 0  9995
2 51718  53.2180   5.8036 0003474  43.9350 316.1919 15.10607739211202
STARLINK-3540           
1 51719U 22016F   25345.30904529  .00000417  00000+0  44275-4 0  9992
2 51719  53.2186   5.9547 0001561  93.9560 266.1611 15.08836813210082
STARLINK-3526           
1 51720U 22016G   25345.28790369  .00001264  00000+0  97505-4 0  9991
2 51720  53.2194   5.9431 0001514  94.9498 265.1667 15.08842420210074
STARLINK-3524           
1 51721U 22016H   25345.29895236  .00002826  00000+0  19558-3 0  9998
2 51721  53.2191   5.9323 0001503 110.4772 249.6382 15.08841036210083
STARLINK-3535           
1 51722U 22016J   25345.28325062  .00002270  00000+0  16058-3 0  9998
2 51722  53.2187   5.9927 0001030 108.2077 251.9028 15.08856146210077
STARLINK-3529           
1 51724U 22016L   25345.27590979 -.00000481  00000+0 -12145-4 0  9998
2 51724  53.2180   6.0256 0001562  85.3871 274.7300 15.08841405210074
STARLINK-3522           
1 51725U 22016M   25345.28695704  .00000312  00000+0  37692-4 0  9997
2 51725  53.2185   5.9772 0001404  92.2751 267.8402 15.08840151210073
STARLINK-3527           
1 51726U 22016N   25345.25106775  .00000471  00000+0  47714-4 0  9992
2 51726  53.2185 356.1372 0001617  85.0110 275.1067 15.08840450210213
STARLINK-3532           
1 51727U 22016P   25345.27958834  .00000622  00000+0  57160-4 0  9990
2 51727  53.2183   6.0098 0001242  92.3799 267.7336 15.08840998210073
STARLINK-3523           
1 51729U 22016R   25345.25475098 -.00000036  00000+0  15851-4 0  9997
2 51729  53.2198 356.1225 0001655  88.9528 271.1654 15.08837363210211
STARLINK-3514           
1 51731U 22016T   25345.24739223  .00001498  00000+0  11223-3 0  9992
2 51731  53.2190 356.1551 0001610  92.5594 267.5583 15.08838995210215
STARLINK-3518           
1 51732U 22016U   25345.29891347 -.00000480  00000+0 -12054-4 0  9990
2 51732  53.2173 355.9216 0001157  87.3092 272.8032 15.08839200211368
STARLINK-3525           
1 51733U 22016V   25345.30722717  .00004060  00000+0  27294-3 0  9994
2 51733  53.2186 355.8954 0001475  80.0373 280.0785 15.08853857210220
STARLINK-3450           
1 51734U 22016W   25345.28786941  .00001741  00000+0  12743-3 0  9997
2 51734  53.2192 355.9719 0001491  88.9960 271.1203 15.08844919210219
STARLINK-3517           
1 51735U 22016X   25345.29523326  .00000385  00000+0  42310-4 0  9992
2 51735  53.2196 355.9388 0001587  83.6172 276.5001 15.08838223210226
